{
  "links" : {
    "next" : "https://api.nasa.gov/neo/rest/v1/feed?start_date=2012-03-16&end_date=2012-03-16&detailed=true&api_key=t0TVs3DtDT2H8Oy2Zy8m2eVrNsAVKAexjcZXUckd",
    "prev" : "https://api.nasa.gov/neo/rest/v1/feed?start_date=2012-03-14&end_date=2012-03-14&detailed=true&api_key=t0TVs3DtDT2H8Oy2Zy8m2eVrNsAVKAexjcZXUckd",
    "self" : "https://api.nasa.gov/neo/rest/v1/feed?start_date=2012-03-15&end_date=2012-03-15&detailed=true&api_key=t0TVs3DtDT2H8Oy2Zy8m2eVrNsAVKAexjcZXUckd"
  },
  "element_count" : 16,
  "near_earth_objects" : {
    "2012-03-15" : [ {
      "links" : {
        "self" : "https://api.nasa.gov/neo/rest/v1/neo/3602156?api_key=t0TVs3DtDT2H8Oy2Zy8m2eVrNsAVKAexjcZXUckd"
      },
      "neo_reference_id" : "3602156",
      "name" : "(2012 FB71)",
      "nasa_jpl_url" : "http://ssd.jpl.nasa.gov/sbdb.cgi?sstr=3602156",
      "absolute_magnitude_h" : 24.4,
      "estimated_diameter" : {
        "kilometers" : {
          "estimated_diameter_min" : 0.0350392641,
          "estimated_diameter_max" : 0.0783501764
        },
        "meters" : {
          "estimated_diameter_min" : 35.0392641108,
          "estimated_diameter_max" : 78.3501764334
        },
        "miles" : {
          "estimated_diameter_min" : 0.0217723826,
          "estimated_diameter_max" : 0.0486845275
        },
        "feet" : {
          "estimated_diameter_min" : 114.9582192654,
          "estimated_diameter_max" : 257.0543928497
        }
      },
      "is_potentially_hazardous_asteroid" : false,
      "close_approach_data" : [ {
        "close_approach_date" : "2012-03-15",
        "epoch_date_close_approach" : 1331794800000,
        "relative_velocity" : {
          "kilometers_per_second" : "15.6114523167",
          "kilometers_per_hour" : "56201.228339981",
          "miles_per_hour" : "34921.2576871399"
        },
        "miss_distance" : {
          "astronomical" : "0.0523834514",
          "lunar" : "20.3771629333",
          "kilometers" : "7836453",
          "miles" : "4869346"
        },
        "orbiting_body" : "Earth"
      } ],
      "orbital_data" : {
        "orbit_id" : "5",
        "orbit_determination_date" : "2017-04-06 08:50:12",
        "orbit_uncertainty" : "8",
        "minimum_orbit_intersection" : ".0174971",
        "jupiter_tisserand_invariant" : "2.959",
        "epoch_osculation" : "2456018.5",
        "eccentricity" : ".7086522783071834",
        "semi_major_axis" : "2.669925153181037",
        "inclination" : "2.764274703325807",
        "ascending_node_longitude" : "76.45692856443982",
        "orbital_period" : "1593.481615000052",
        "perihelion_distance" : ".7778766104696397",
        "perihelion_argument" : "39.19309776391825",
        "aphelion_distance" : "4.561973695892435",
        "perihelion_time" : "2455963.754500073343",
        "mean_anomaly" : "12.3681251092413",
        "mean_motion" : ".225920397581737",
        "equinox" : "J2000"
      }
    }, {
      "links" : {
        "self" : "https://api.nasa.gov/neo/rest/v1/neo/2096536?api_key=t0TVs3DtDT2H8Oy2Zy8m2eVrNsAVKAexjcZXUckd"
      },
      "neo_reference_id" : "2096536",
      "name" : "96536 (1998 SO10)",
      "nasa_jpl_url" : "http://ssd.jpl.nasa.gov/sbdb.cgi?sstr=2096536",
      "absolute_magnitude_h" : 15.4,
      "estimated_diameter" : {
        "kilometers" : {
          "estimated_diameter_min" : 2.2108281036,
          "estimated_diameter_max" : 4.9435619262
        },
        "meters" : {
          "estimated_diameter_min" : 2210.8281035909,
          "estimated_diameter_max" : 4943.5619261962
        },
        "miles" : {
          "estimated_diameter_min" : 1.3737444696,
          "estimated_diameter_max" : 3.0717860176
        },
        "feet" : {
          "estimated_diameter_min" : 7253.3732753852,
          "estimated_diameter_max" : 16219.0357099415
        }
      },
      "is_potentially_hazardous_asteroid" : false,
      "close_approach_data" : [ {
        "close_approach_date" : "2012-03-15",
        "epoch_date_close_approach" : 1331794800000,
        "relative_velocity" : {
          "kilometers_per_second" : "36.499532356",
          "kilometers_per_hour" : "131398.316481712",
          "miles_per_hour" : "81645.803927206"
        },
        "miss_distance" : {
          "astronomical" : "0.4610560147",
          "lunar" : "179.3507995605",
          "kilometers" : "68973000",
          "miles" : "42857836"
        },
        "orbiting_body" : "Earth"
      } ],
      "orbital_data" : {
        "orbit_id" : "88",
        "orbit_determination_date" : "2017-09-19 06:50:09",
        "orbit_uncertainty" : "0",
        "minimum_orbit_intersection" : ".454861",
        "jupiter_tisserand_invariant" : "2.890",
        "epoch_osculation" : "2458000.5",
        "eccentricity" : ".7784666545046935",
        "semi_major_axis" : "2.297564907394083",
        "inclination" : "41.47292184328546",
        "ascending_node_longitude" : "199.5879090744637",
        "orbital_period" : "1272.038074563085",
        "perihelion_distance" : ".5089872404276251",
        "perihelion_argument" : "22.39890104092642",
        "aphelion_distance" : "4.08614257436054",
        "perihelion_time" : "2458560.370337803881",
        "mean_anomaly" : "201.5508736413995",
        "mean_motion" : ".2830103966216983",
        "equinox" : "J2000"
      }
    }, {
      "links" : {
        "self" : "https://api.nasa.gov/neo/rest/v1/neo/2207398?api_key=t0TVs3DtDT2H8Oy2Zy8m2eVrNsAVKAexjcZXUckd"
      },
      "neo_reference_id" : "2207398",
      "name" : "207398 (2006 AS2)",
      "nasa_jpl_url" : "http://ssd.jpl.nasa.gov/sbdb.cgi?sstr=2207398",
      "absolute_magnitude_h" : 20.4,
      "estimated_diameter" : {
        "kilometers" : {
          "estimated_diameter_min" : 0.2210828104,
          "estimated_diameter_max" : 0.4943561926
        },
        "meters" : {
          "estimated_diameter_min" : 221.0828103591,
          "estimated_diameter_max" : 494.3561926196
        },
        "miles" : {
          "estimated_diameter_min" : 0.137374447,
          "estimated_diameter_max" : 0.3071786018
        },
        "feet" : {
          "estimated_diameter_min" : 725.3373275385,
          "estimated_diameter_max" : 1621.9035709942
        }
      },
      "is_potentially_hazardous_asteroid" : true,
      "close_approach_data" : [ {
        "close_approach_date" : "2012-03-15",
        "epoch_date_close_approach" : 1331794800000,
        "relative_velocity" : {
          "kilometers_per_second" : "12.8798146355",
          "kilometers_per_hour" : "46367.3326878774",
          "miles_per_hour" : "28810.857358198"
        },
        "miss_distance" : {
          "astronomical" : "0.205446296",
          "lunar" : "79.9186096191",
          "kilometers" : "30734330",
          "miles" : "19097428"
        },
        "orbiting_body" : "Earth"
      } ],
      "orbital_data" : {
        "orbit_id" : "71",
        "orbit_determination_date" : "2017-04-06 09:25:30",
        "orbit_uncertainty" : "0",
        "minimum_orbit_intersection" : ".0102349",
        "jupiter_tisserand_invariant" : "3.460",
        "epoch_osculation" : "2458000.5",
        "eccentricity" : ".639082740602857",
        "semi_major_axis" : "2.093414638054213",
        "inclination" : "2.593186665264945",
        "ascending_node_longitude" : "125.9879237920386",
        "orbital_period" : "1106.321396423511",
        "perihelion_distance" : ".7555494739483886",
        "perihelion_argument" : "79.57092377239239",
        "aphelion_distance" : "3.431279802160037",
        "perihelion_time" : "2458234.891614591009",
        "mean_anomaly" : "283.7283292851895",
        "mean_motion" : ".3254027276013998",
        "equinox" : "J2000"
      }
    } ]
  }
}